KUIPER-00141            
1 65966U 25228V   25307.78869457  .00036440  00000+0  10698-2 0  9994
2 65966  51.8799 208.2347 0005697 210.8759 149.1892 15.34787840  4430
KUIPER-00146            
1 65967U 25228W   25307.78915556  .00026244  00000+0  77546-3 0  9994
2 65967  51.8810 208.2452 0005622 213.2637 146.7996 15.34752988  4435
KUIPER-00149            
1 65968U 25228X   25307.78667516  .00019123  00000+0  56554-3 0  9999
2 65968  51.8805 208.2225 0005581 209.2543 150.8131 15.34922747  4432
KUIPER-00154            
1 65969U 25228Y   25307.78574434  .00016338  00000+0  48397-3 0  9997
2 65969  51.8803 208.2171 0005753 207.1496 152.9189 15.34988294  4431
KUIPER-00157            
1 65970U 25228Z   25307.79227532  .00028363  00000+0  84228-3 0  9998
2 65970  51.8811 208.2646 0005826 224.0275 136.0247 15.34550970  4437
STRIX-5                 
1 65971U 25229A   25307.80026360  .00004803  00000+0  37140-3 0  9992
2 65971  41.9269  94.9328 0039105  16.0467 344.1588 15.01729149  3058
ELECTRON R/B            
1 65972U 25229B   25307.80026376  .00004683  00000+0  36247-3 0  9993
2 65972  41.9268  94.9326 0039114  16.0549 344.1507 15.01728763  3037
ELECTRON KICK STAGE R/B 
1 65973U 25229C   25307.72248806  .00006394  00000+0  47778-3 0  9991
2 65973  41.9820  95.3269 0040266  15.6507 344.5554 15.02620302  3017
SDA_1664                
1 65974U 25230A   25307.72071191  .00000244  00000+0  20670-3 0  9995
2 65974  81.2992  60.7960 0003423  64.4057 295.7454 13.84696835  2607
SDA_1665                
1 65975U 25230B   25307.78308728  .00000169  00000+0  13830-3 0  9997
2 65975  81.3029  60.7264 0005004 106.6645 253.5062 13.85426335  2611
SDA_1666                
1 65976U 25230C   25307.72167485  .00000272  00000+0  23194-3 0  9994
2 65976  81.3001  60.7993 0003074  61.5022 298.6444 13.84625594  2604
SDA_1667                
1 65977U 25230D   25307.79053528  .00000247  00000+0  20881-3 0  9996
2 65977  81.2996  60.7267 0003943  74.8570 285.3023 13.84876094  2611
