CCSDS_OMM_VERS = 2.0
CREATION_DATE  = 
ORIGINATOR     = 

OBJECT_NAME    = KUIPER-00141
OBJECT_ID      = 2025-228V
CENTER_NAME    = EARTH
REF_FRAME      = TEME
TIME_SYSTEM    = UTC
MEAN_ELEMENT_THEORY = SGP/SGP4

EPOCH          = 2025-11-03T18:55:43.210848
MEAN_MOTION    = 15.34787840
ECCENTRICITY   = .0005697
INCLINATION    = 51.8799
RA_OF_ASC_NODE = 208.2347
ARG_OF_PERICENTER = 210.8759
MEAN_ANOMALY   = 149.1892

EPHEMERIS_TYPE = 0
CLASSIFICATION_TYPE = U
NORAD_CAT_ID   = 65966
ELEMENT_SET_NO = 999
REV_AT_EPOCH   = 443
BSTAR          = .10698E-2
MEAN_MOTION_DOT = .3644E-3
MEAN_MOTION_DDOT = 0

CCSDS_OMM_VERS = 2.0
CREATION_DATE  = 
ORIGINATOR     = 

OBJECT_NAME    = KUIPER-00146
OBJECT_ID      = 2025-228W
CENTER_NAME    = EARTH
REF_FRAME      = TEME
TIME_SYSTEM    = UTC
MEAN_ELEMENT_THEORY = SGP/SGP4

EPOCH          = 2025-11-03T18:56:23.040384
MEAN_MOTION    = 15.34752988
ECCENTRICITY   = .0005622
INCLINATION    = 51.8810
RA_OF_ASC_NODE = 208.2452
ARG_OF_PERICENTER = 213.2637
MEAN_ANOMALY   = 146.7996

EPHEMERIS_TYPE = 0
CLASSIFICATION_TYPE = U
NORAD_CAT_ID   = 65967
ELEMENT_SET_NO = 999
REV_AT_EPOCH   = 443
BSTAR          = .77546E-3
MEAN_MOTION_DOT = .26244E-3
MEAN_MOTION_DDOT = 0

CCSDS_OMM_VERS = 2.0
CREATION_DATE  = 
ORIGINATOR     = 

OBJECT_NAME    = KUIPER-00149
OBJECT_ID      = 2025-228X
CENTER_NAME    = EARTH
REF_FRAME      = TEME
TIME_SYSTEM    = UTC
MEAN_ELEMENT_THEORY = SGP/SGP4

EPOCH          = 2025-11-03T18:52:48.733824
MEAN_MOTION    = 15.34922747
ECCENTRICITY   = .0005581
INCLINATION    = 51.8805
RA_OF_ASC_NODE = 208.2225
ARG_OF_PERICENTER = 209.2543
MEAN_ANOMALY   = 150.8131

EPHEMERIS_TYPE = 0
CLASSIFICATION_TYPE = U
NORAD_CAT_ID   = 65968
ELEMENT_SET_NO = 999
REV_AT_EPOCH   = 443
BSTAR          = .56554E-3
MEAN_MOTION_DOT = .19123E-3
MEAN_MOTION_DDOT = 0

CCSDS_OMM_VERS = 2.0
CREATION_DATE  = 
ORIGINATOR     = 

OBJECT_NAME    = KUIPER-00154
OBJECT_ID      = 2025-228Y
CENTER_NAME    = EARTH
REF_FRAME      = TEME
TIME_SYSTEM    = UTC
MEAN_ELEMENT_THEORY = SGP/SGP4

EPOCH          = 2025-11-03T18:51:28.310976
MEAN_MOTION    = 15.34988294
ECCENTRICITY   = .0005753
INCLINATION    = 51.8803
RA_OF_ASC_NODE = 208.2171
ARG_OF_PERICENTER = 207.1496
MEAN_ANOMALY   = 152.9189

EPHEMERIS_TYPE = 0
CLASSIFICATION_TYPE = U
NORAD_CAT_ID   = 65969
ELEMENT_SET_NO = 999
REV_AT_EPOCH   = 443
BSTAR          = .48397E-3
MEAN_MOTION_DOT = .16338E-3
MEAN_MOTION_DDOT = 0

CCSDS_OMM_VERS = 2.0
CREATION_DATE  = 
ORIGINATOR     = 

OBJECT_NAME    = KUIPER-00157
OBJECT_ID      = 2025-228Z
CENTER_NAME    = EARTH
REF_FRAME      = TEME
TIME_SYSTEM    = UTC
MEAN_ELEMENT_THEORY = SGP/SGP4

EPOCH          = 2025-11-03T19:00:52.587648
MEAN_MOTION    = 15.34550970
ECCENTRICITY   = .0005826
INCLINATION    = 51.8811
RA_OF_ASC_NODE = 208.2646
ARG_OF_PERICENTER = 224.0275
MEAN_ANOMALY   = 136.0247

EPHEMERIS_TYPE = 0
CLASSIFICATION_TYPE = U
NORAD_CAT_ID   = 65970
ELEMENT_SET_NO = 999
REV_AT_EPOCH   = 443
BSTAR          = .84228E-3
MEAN_MOTION_DOT = .28363E-3
MEAN_MOTION_DDOT = 0

CCSDS_OMM_VERS = 2.0
CREATION_DATE  = 
ORIGINATOR     = 

OBJECT_NAME    = STRIX-5
OBJECT_ID      = 2025-229A
CENTER_NAME    = EARTH
REF_FRAME      = TEME
TIME_SYSTEM    = UTC
MEAN_ELEMENT_THEORY = SGP/SGP4

EPOCH          = 2025-11-03T19:12:22.775040
MEAN_MOTION    = 15.01729149
ECCENTRICITY   = .0039105
INCLINATION    = 41.9269
RA_OF_ASC_NODE = 94.9328
ARG_OF_PERICENTER = 16.0467
MEAN_ANOMALY   = 344.1588

EPHEMERIS_TYPE = 0
CLASSIFICATION_TYPE = U
NORAD_CAT_ID   = 65971
ELEMENT_SET_NO = 999
REV_AT_EPOCH   = 305
BSTAR          = .3714E-3
MEAN_MOTION_DOT = .4803E-4
MEAN_MOTION_DDOT = 0

CCSDS_OMM_VERS = 2.0
CREATION_DATE  = 
ORIGINATOR     = 

OBJECT_NAME    = ELECTRON R/B
OBJECT_ID      = 2025-229B
CENTER_NAME    = EARTH
REF_FRAME      = TEME
TIME_SYSTEM    = UTC
MEAN_ELEMENT_THEORY = SGP/SGP4

EPOCH          = 2025-11-03T19:12:22.788864
MEAN_MOTION    = 15.01728763
ECCENTRICITY   = .0039114
INCLINATION    = 41.9268
RA_OF_ASC_NODE = 94.9326
ARG_OF_PERICENTER = 16.0549
MEAN_ANOMALY   = 344.1507

EPHEMERIS_TYPE = 0
CLASSIFICATION_TYPE = U
NORAD_CAT_ID   = 65972
ELEMENT_SET_NO = 999
REV_AT_EPOCH   = 303
BSTAR          = .36247E-3
MEAN_MOTION_DOT = .4683E-4
MEAN_MOTION_DDOT = 0

CCSDS_OMM_VERS = 2.0
CREATION_DATE  = 
ORIGINATOR     = 

OBJECT_NAME    = ELECTRON KICK STAGE R/B
OBJECT_ID      = 2025-229C
CENTER_NAME    = EARTH
REF_FRAME      = TEME
TIME_SYSTEM    = UTC
MEAN_ELEMENT_THEORY = SGP/SGP4

EPOCH          = 2025-11-03T17:20:22.968384
MEAN_MOTION    = 15.02620302
ECCENTRICITY   = .0040266
INCLINATION    = 41.9820
RA_OF_ASC_NODE = 95.3269
ARG_OF_PERICENTER = 15.6507
MEAN_ANOMALY   = 344.5554

EPHEMERIS_TYPE = 0
CLASSIFICATION_TYPE = U
NORAD_CAT_ID   = 65973
ELEMENT_SET_NO = 999
REV_AT_EPOCH   = 301
BSTAR          = .47778E-3
MEAN_MOTION_DOT = .6394E-4
MEAN_MOTION_DDOT = 0

CCSDS_OMM_VERS = 2.0
CREATION_DATE  = 
ORIGINATOR     = 

OBJECT_NAME    = SDA_1664
OBJECT_ID      = 2025-230A
CENTER_NAME    = EARTH
REF_FRAME      = TEME
TIME_SYSTEM    = UTC
MEAN_ELEMENT_THEORY = SGP/SGP4

EPOCH          = 2025-11-03T17:17:49.509024
MEAN_MOTION    = 13.84696835
ECCENTRICITY   = .0003423
INCLINATION    = 81.2992
RA_OF_ASC_NODE = 60.7960
ARG_OF_PERICENTER = 64.4057
MEAN_ANOMALY   = 295.7454

EPHEMERIS_TYPE = 0
CLASSIFICATION_TYPE = U
NORAD_CAT_ID   = 65974
ELEMENT_SET_NO = 999
REV_AT_EPOCH   = 260
BSTAR          = .2067E-3
MEAN_MOTION_DOT = .244E-5
MEAN_MOTION_DDOT = 0

CCSDS_OMM_VERS = 2.0
CREATION_DATE  = 
ORIGINATOR     = 

OBJECT_NAME    = SDA_1665
OBJECT_ID      = 2025-230B
CENTER_NAME    = EARTH
REF_FRAME      = TEME
TIME_SYSTEM    = UTC
MEAN_ELEMENT_THEORY = SGP/SGP4

EPOCH          = 2025-11-03T18:47:38.740992
MEAN_MOTION    = 13.85426335
ECCENTRICITY   = .0005004
INCLINATION    = 81.3029
RA_OF_ASC_NODE = 60.7264
ARG_OF_PERICENTER = 106.6645
MEAN_ANOMALY   = 253.5062

EPHEMERIS_TYPE = 0
CLASSIFICATION_TYPE = U
NORAD_CAT_ID   = 65975
ELEMENT_SET_NO = 999
REV_AT_EPOCH   = 261
BSTAR          = .1383E-3
MEAN_MOTION_DOT = .169E-5
MEAN_MOTION_DDOT = 0

CCSDS_OMM_VERS = 2.0
CREATION_DATE  = 
ORIGINATOR     = 

OBJECT_NAME    = SDA_1666
OBJECT_ID      = 2025-230C
CENTER_NAME    = EARTH
REF_FRAME      = TEME
TIME_SYSTEM    = UTC
MEAN_ELEMENT_THEORY = SGP/SGP4

EPOCH          = 2025-11-03T17:19:12.707040
MEAN_MOTION    = 13.84625594
ECCENTRICITY   = .0003074
INCLINATION    = 81.3001
RA_OF_ASC_NODE = 60.7993
ARG_OF_PERICENTER = 61.5022
MEAN_ANOMALY   = 298.6444

EPHEMERIS_TYPE = 0
CLASSIFICATION_TYPE = U
NORAD_CAT_ID   = 65976
ELEMENT_SET_NO = 999
REV_AT_EPOCH   = 260
BSTAR          = .23194E-3
MEAN_MOTION_DOT = .272E-5
MEAN_MOTION_DDOT = 0

CCSDS_OMM_VERS = 2.0
CREATION_DATE  = 
ORIGINATOR     = 

OBJECT_NAME    = SDA_1667
OBJECT_ID      = 2025-230D
CENTER_NAME    = EARTH
REF_FRAME      = TEME
TIME_SYSTEM    = UTC
MEAN_ELEMENT_THEORY = SGP/SGP4

EPOCH          = 2025-11-03T18:58:22.248192
MEAN_MOTION    = 13.84876094
ECCENTRICITY   = .0003943
INCLINATION    = 81.2996
RA_OF_ASC_NODE = 60.7267
ARG_OF_PERICENTER = 74.8570
MEAN_ANOMALY   = 285.3023

EPHEMERIS_TYPE = 0
CLASSIFICATION_TYPE = U
NORAD_CAT_ID   = 65977
ELEMENT_SET_NO = 999
REV_AT_EPOCH   = 261
BSTAR          = .20881E-3
MEAN_MOTION_DOT = .247E-5
MEAN_MOTION_DDOT = 0

